start=new Date('2023-01-24T00:00:00.000Z').valueOf();
sats=[{"REF_FRAME":"TEME","TIME_SYSTEM":"UTC","GP_ID":"223608630","PERIOD":"95.437","BSTAR":"0.00024611000000","CLASSIFICATION_TYPE":"U","FILE":"3758594","NORAD_CAT_ID":"51769","MEAN_MOTION_DDOT":"0.0000000000000","OBJECT_NAME":"STARLINK-3621","REV_AT_EPOCH":"5171","COUNTRY_CODE":"US","OBJECT_TYPE":"PAYLOAD","APOAPSIS":"541.092","TLE_LINE2":"2 51769  53.2137  63.9369 0001955  91.0835 269.0381 15.08841775 51712","OBJECT_ID":"2022-017B","RA_OF_ASC_NODE":"63.9369","MEAN_MOTION":"15.08841775","INCLINATION":"53.2137","MEAN_ANOMALY":"269.0381","MEAN_MOTION_DOT":"0.00003631","EPHEMERIS_TYPE":"0","SEMIMAJOR_AXIS":"6917.875","ELEMENT_SET_NO":"999","TLE_LINE1":"1 51769U 22017B   23023.09833496  .00003631  00000-0  24611-3 0  9992","MEAN_ELEMENT_THEORY":"SGP4","ARG_OF_PERICENTER":"91.0835","EPOCH":"2023-01-23T02:21:36.140544","DECAY_DATE":null,"RCS_SIZE":"LARGE","SITE":"AFWTR","ECCENTRICITY":"0.00019550","PERIAPSIS":"538.388","LAUNCH_DATE":"2022-02-25","CENTER_NAME":"EARTH"},{"MEAN_MOTION":"15.08831499","INCLINATION":"53.2181","RA_OF_ASC_NODE":"63.9072","OBJECT_ID":"2022-017C","MEAN_ANOMALY":"262.7866","TLE_LINE1":"1 51770U 22017C   23023.10201863  .00000718  00000-0  63201-4 0  9995","MEAN_MOTION_DOT":"0.00000718","SEMIMAJOR_AXIS":"6917.906","ELEMENT_SET_NO":"999","EPHEMERIS_TYPE":"0","MEAN_ELEMENT_THEORY":"SGP4","EPOCH":"2023-01-23T02:26:54.409632","ARG_OF_PERICENTER":"97.3267","DECAY_DATE":null,"SITE":"AFWTR","RCS_SIZE":"LARGE","LAUNCH_DATE":"2022-02-25","PERIAPSIS":"538.911","CENTER_NAME":"EARTH","ECCENTRICITY":"0.00012440","REF_FRAME":"TEME","TIME_SYSTEM":"UTC","PERIOD":"95.438","GP_ID":"223608470","NORAD_CAT_ID":"51770","FILE":"3758594","BSTAR":"0.00006320100000","CLASSIFICATION_TYPE":"U","MEAN_MOTION_DDOT":"0.0000000000000","OBJECT_NAME":"STARLINK-3612","REV_AT_EPOCH":"5171","COUNTRY_CODE":"US","TLE_LINE2":"2 51770  53.2181  63.9072 0001244  97.3267 262.7866 15.08831499 51713","OBJECT_TYPE":"PAYLOAD","APOAPSIS":"540.632"},{"TLE_LINE1":"1 51771U 22017D   23023.09561316  .00001860  00000-0  13494-3 0  9993","MEAN_MOTION_DOT":"0.00001860","ELEMENT_SET_NO":"999","SEMIMAJOR_AXIS":"6917.881","EPHEMERIS_TYPE":"0","MEAN_ELEMENT_THEORY":"SGP4","MEAN_MOTION":"15.08839694","INCLINATION":"53.2154","OBJECT_ID":"2022-017D","RA_OF_ASC_NODE":"63.9473","MEAN_ANOMALY":"282.4327","PERIAPSIS":"538.418","LAUNCH_DATE":"2022-02-25","CENTER_NAME":"EARTH","ECCENTRICITY":"0.00019200","EPOCH":"2023-01-23T02:17:40.977024","ARG_OF_PERICENTER":"77.6880","SITE":"AFWTR","DECAY_DATE":null,"RCS_SIZE":"LARGE","FILE":"3758600","NORAD_CAT_ID":"51771","BSTAR":"0.00013494000000","CLASSIFICATION_TYPE":"U","MEAN_MOTION_DDOT":"0.0000000000000","REF_FRAME":"TEME","TIME_SYSTEM":"UTC","PERIOD":"95.438","GP_ID":"223608489","COUNTRY_CODE":"US","REV_AT_EPOCH":"5171","TLE_LINE2":"2 51771  53.2154  63.9473 0001920  77.6880 282.4327 15.08839694 51718","OBJECT_TYPE":"PAYLOAD","APOAPSIS":"541.075","OBJECT_NAME":"STARLINK-3614"},{"LAUNCH_DATE":"2022-02-25","PERIAPSIS":"538.738","CENTER_NAME":"EARTH","ECCENTRICITY":"0.00014790","EPOCH":"2023-01-23T06:51:51.759936","ARG_OF_PERICENTER":"92.8801","DECAY_DATE":null,"SITE":"AFWTR","RCS_SIZE":"LARGE","TLE_LINE1":"1 51772U 22017E   23023.28601574  .00001721  00000-0  12623-3 0  9995","MEAN_MOTION_DOT":"0.00001721","SEMIMAJOR_AXIS":"6917.896","EPHEMERIS_TYPE":"0","ELEMENT_SET_NO":"999","MEAN_ELEMENT_THEORY":"SGP4","MEAN_MOTION":"15.08834762","INCLINATION":"53.2167","RA_OF_ASC_NODE":"63.0865","OBJECT_ID":"2022-017E","MEAN_ANOMALY":"267.2361","COUNTRY_CODE":"US","REV_AT_EPOCH":"5179","TLE_LINE2":"2 51772  53.2167  63.0865 0001479  92.8801 267.2361 15.08834762 51798","OBJECT_TYPE":"PAYLOAD","APOAPSIS":"540.785","OBJECT_NAME":"STARLINK-3623","FILE":"3758828","NORAD_CAT_ID":"51772","BSTAR":"0.00012623000000","CLASSIFICATION_TYPE":"U","MEAN_MOTION_DDOT":"0.0000000000000","TIME_SYSTEM":"UTC","REF_FRAME":"TEME","PERIOD":"95.438","GP_ID":"223613728"},{"OBJECT_ID":"2022-017F","RA_OF_ASC_NODE":"63.6405","MEAN_MOTION":"15.08840558","INCLINATION":"53.2168","MEAN_ANOMALY":"260.0659","MEAN_MOTION_DOT":"0.00002344","EPHEMERIS_TYPE":"0","SEMIMAJOR_AXIS":"6917.879","ELEMENT_SET_NO":"999","TLE_LINE1":"1 51773U 22017F   23023.16089455  .00002344  00000-0  16531-3 0  9995","MEAN_ELEMENT_THEORY":"SGP4","ARG_OF_PERICENTER":"100.0513","EPOCH":"2023-01-23T03:51:41.289120","RCS_SIZE":"LARGE","DECAY_DATE":null,"SITE":"AFWTR","ECCENTRICITY":"0.00015940","PERIAPSIS":"538.641","LAUNCH_DATE":"2022-02-25","CENTER_NAME":"EARTH","TIME_SYSTEM":"UTC","REF_FRAME":"TEME","GP_ID":"223608485","PERIOD":"95.438","BSTAR":"0.00016531000000","CLASSIFICATION_TYPE":"U","FILE":"3758600","NORAD_CAT_ID":"51773","MEAN_MOTION_DDOT":"0.0000000000000","OBJECT_NAME":"STARLINK-3624","REV_AT_EPOCH":"5173","COUNTRY_CODE":"US","OBJECT_TYPE":"PAYLOAD","APOAPSIS":"540.846","TLE_LINE2":"2 51773  53.2168  63.6405 0001594 100.0513 260.0659 15.08840558 51731"},{"TIME_SYSTEM":"UTC","REF_FRAME":"TEME","GP_ID":"223613747","PERIOD":"95.438","BSTAR":"0.00007774000000","CLASSIFICATION_TYPE":"U","FILE":"3758829","NORAD_CAT_ID":"51774","MEAN_MOTION_DDOT":"0.0000000000000","OBJECT_NAME":"STARLINK-3629","COUNTRY_CODE":"US","REV_AT_EPOCH":"5178","OBJECT_TYPE":"PAYLOAD","APOAPSIS":"540.565","TLE_LINE2":"2 51774  53.2185  62.2205 0001180 104.2221 255.8902 15.08838793 51783","OBJECT_ID":"2022-017G","RA_OF_ASC_NODE":"62.2205","MEAN_MOTION":"15.08838793","INCLINATION":"53.2185","MEAN_ANOMALY":"255.8902","MEAN_MOTION_DOT":"0.00000950","SEMIMAJOR_AXIS":"6917.884","EPHEMERIS_TYPE":"0","ELEMENT_SET_NO":"999","TLE_LINE1":"1 51774U 22017G   23023.47737567  .00000950  00000-0  77740-4 0  9995","MEAN_ELEMENT_THEORY":"SGP4","ARG_OF_PERICENTER":"104.2221","EPOCH":"2023-01-23T11:27:25.257888","DECAY_DATE":null,"SITE":"AFWTR","RCS_SIZE":"LARGE","ECCENTRICITY":"0.00011800","PERIAPSIS":"538.933","LAUNCH_DATE":"2022-02-25","CENTER_NAME":"EARTH"},{"OBJECT_NAME":"STARLINK-3620","TLE_LINE2":"2 51775  53.2149  62.4756 0001323  74.5540 285.5598 15.08848388 51769","OBJECT_TYPE":"PAYLOAD","APOAPSIS":"540.635","REV_AT_EPOCH":"5176","COUNTRY_CODE":"US","PERIOD":"95.437","GP_ID":"223621479","TIME_SYSTEM":"UTC","REF_FRAME":"TEME","MEAN_MOTION_DDOT":"0.0000000000000","FILE":"3759180","NORAD_CAT_ID":"51775","BSTAR":"0.00164210000000","CLASSIFICATION_TYPE":"U","RCS_SIZE":"LARGE","DECAY_DATE":null,"SITE":"AFWTR","EPOCH":"2023-01-23T10:07:55.738560","ARG_OF_PERICENTER":"74.5540","LAUNCH_DATE":"2022-02-25","PERIAPSIS":"538.805","CENTER_NAME":"EARTH","ECCENTRICITY":"0.00013230","MEAN_ANOMALY":"285.5598","MEAN_MOTION":"15.08848388","INCLINATION":"53.2149","RA_OF_ASC_NODE":"62.4756","OBJECT_ID":"2022-017H","MEAN_ELEMENT_THEORY":"SGP4","TLE_LINE1":"1 51775U 22017H   23023.42217290  .00025949  00000-0  16421-2 0  9999","MEAN_MOTION_DOT":"0.00025949","ELEMENT_SET_NO":"999","SEMIMAJOR_AXIS":"6917.855","EPHEMERIS_TYPE":"0"},{"RCS_SIZE":"LARGE","DECAY_DATE":null,"SITE":"AFWTR","EPOCH":"2023-01-23T19:19:02.947008","ARG_OF_PERICENTER":"106.0888","PERIAPSIS":"538.744","LAUNCH_DATE":"2022-02-25","CENTER_NAME":"EARTH","ECCENTRICITY":"0.00014470","MEAN_ANOMALY":"254.0263","MEAN_MOTION":"15.08840029","INCLINATION":"53.2164","RA_OF_ASC_NODE":"60.7629","OBJECT_ID":"2022-017J","MEAN_ELEMENT_THEORY":"SGP4","TLE_LINE1":"1 51776U 22017J   23023.80489522 -.00001096  00000-0 -50809-4 0  9990","MEAN_MOTION_DOT":"-0.00001096","ELEMENT_SET_NO":"999","SEMIMAJOR_AXIS":"6917.880","EPHEMERIS_TYPE":"0","OBJECT_NAME":"STARLINK-3608","TLE_LINE2":"2 51776  53.2164  60.7629 0001447 106.0888 254.0263 15.08840029 51821","OBJECT_TYPE":"PAYLOAD","APOAPSIS":"540.746","COUNTRY_CODE":"US","REV_AT_EPOCH":"5182","PERIOD":"95.438","GP_ID":"223621215","REF_FRAME":"TEME","TIME_SYSTEM":"UTC","MEAN_MOTION_DDOT":"0.0000000000000","NORAD_CAT_ID":"51776","FILE":"3759178","BSTAR":"-0.00005080900000","CLASSIFICATION_TYPE":"U"},{"ARG_OF_PERICENTER":"104.0522","EPOCH":"2023-01-23T03:35:47.583456","DECAY_DATE":null,"RCS_SIZE":"LARGE","SITE":"AFWTR","ECCENTRICITY":"0.00014570","CENTER_NAME":"EARTH","LAUNCH_DATE":"2022-02-25","PERIAPSIS":"538.765","RA_OF_ASC_NODE":"63.7026","OBJECT_ID":"2022-017K","INCLINATION":"53.2156","MEAN_MOTION":"15.08830936","MEAN_ANOMALY":"256.0632","ELEMENT_SET_NO":"999","SEMIMAJOR_AXIS":"6917.908","EPHEMERIS_TYPE":"0","MEAN_MOTION_DOT":"-0.00001621","TLE_LINE1":"1 51777U 22017K   23023.14985629 -.00001621  00000-0 -83766-4 0  9999","MEAN_ELEMENT_THEORY":"SGP4","OBJECT_NAME":"STARLINK-3625","COUNTRY_CODE":"US","REV_AT_EPOCH":"5173","APOAPSIS":"540.781","OBJECT_TYPE":"PAYLOAD","TLE_LINE2":"2 51777  53.2156  63.7026 0001457 104.0522 256.0632 15.08830936 51739","TIME_SYSTEM":"UTC","REF_FRAME":"TEME","GP_ID":"223608642","PERIOD":"95.438","CLASSIFICATION_TYPE":"U","BSTAR":"-0.00008376600000","NORAD_CAT_ID":"51777","FILE":"3758595","MEAN_MOTION_DDOT":"0.0000000000000"},{"OBJECT_NAME":"STARLINK-3615","TLE_LINE2":"2 51778  53.2173  50.9543 0001398  94.0451 266.0701 15.08840786 51961","OBJECT_TYPE":"PAYLOAD","APOAPSIS":"540.710","COUNTRY_CODE":"US","REV_AT_EPOCH":"5196","PERIOD":"95.438","GP_ID":"223621491","TIME_SYSTEM":"UTC","REF_FRAME":"TEME","MEAN_MOTION_DDOT":"0.0000000000000","FILE":"3759178","NORAD_CAT_ID":"51778","BSTAR":"0.00073839000000","CLASSIFICATION_TYPE":"U","SITE":"AFWTR","DECAY_DATE":null,"RCS_SIZE":"LARGE","EPOCH":"2023-01-23T18:12:51.916608","ARG_OF_PERICENTER":"94.0451","LAUNCH_DATE":"2022-02-25","PERIAPSIS":"538.776","CENTER_NAME":"EARTH","ECCENTRICITY":"0.00013980","MEAN_ANOMALY":"266.0701","MEAN_MOTION":"15.08840786","INCLINATION":"53.2173","OBJECT_ID":"2022-017L","RA_OF_ASC_NODE":"50.9543","MEAN_ELEMENT_THEORY":"SGP4","TLE_LINE1":"1 51778U 22017L   23023.75893422  .00011483  00000-0  73839-3 0  9990","MEAN_MOTION_DOT":"0.00011483","SEMIMAJOR_AXIS":"6917.878","ELEMENT_SET_NO":"999","EPHEMERIS_TYPE":"0"}];
